OBJECT_NAME,OBJECT_ID,EPOCH,MEAN_MOTION,ECCENTRICITY,INCLINATION,RA_OF_ASC_NODE,ARG_OF_PERICENTER,MEAN_ANOMALY,EPHEMERIS_TYPE,CLASSIFICATION_TYPE,NORAD_CAT_ID,ELEMENT_SET_NO,REV_AT_EPOCH,BSTAR,MEAN_MOTION_DOT,MEAN_MOTION_DDOT
CUTE-1 (CO-55),2003-031E,2026-06-18T00:29:44.023488,14.24336174,.00096097,98.6736,177.5689,175.5784,184.5482,0,U,27844,999,19179,.11471233E-3,.221E-5,0
CUBESAT XI-IV (CO-57),2003-031J,2026-06-17T22:32:30.413760,14.23621196,.0009073,98.6765,177.2007,194.7196,165.3719,0,U,27848,999,19148,.10079477E-3,.186E-5,0
CUBESAT XI-V,2005-043F,2026-06-17T22:42:29.709216,14.72633352,.00137043,98.2987,324.5839,198.2082,161.8635,0,U,28895,999,10186,.18286399E-3,.1113E-4,0
CUTE-1.7+APD II (CO-65),2008-021C,2026-06-18T05:50:06.773280,15.09458737,.000964,97.8274,150.6836,35.5766,324.6103,0,U,32785,999,98535,.26362178E-3,.4157E-4,0
CANX-2,2008-021H,2026-06-17T21:16:22.678176,15.05623552,.00114189,97.8640,148.6774,48.7586,311.4622,0,U,32790,999,98491,.25994567E-3,.369E-4,0
SEEDS II (CO-66),2008-021J,2026-06-17T23:37:19.535232,15.32775092,.00009507,97.7517,166.9199,0.1361,359.9880,0,U,32791,999,98741,.47643049E-3,.1501E-3,0
SWISSCUBE,2009-051B,2026-06-18T04:40:41.275488,14.62483315,.00060265,98.4035,77.1008,199.5178,160.5793,0,U,35932,999,88930,.16095583E-3,.766E-5,0
BEESAT-1,2009-051C,2026-06-17T14:07:52.707072,14.61721012,.0004244,98.3963,76.1188,215.3453,144.7466,0,U,35933,999,88924,.13834E-3,.64E-5,0
ITUPSAT1,2009-051E,2026-06-18T04:43:11.614080,14.60442029,.00062858,98.4047,75.9267,230.1057,129.9590,0,U,35935,999,88888,.13197175E-3,.591E-5,0
TISAT 1,2010-035E,2026-06-18T07:01:54.736032,15.31742601,.00015448,98.0713,115.9399,166.4985,193.6296,0,U,36799,999,86787,.50955387E-3,.15546E-3,0
AEROCUBE 4.5A,2012-048K,2026-06-17T23:25:57.113472,15.96962877,.00196435,64.6231,23.9913,225.6747,134.2807,0,U,38767,999,37278,.10008634E-2,.442913E-2,.87797932E-4
STRAND-1,2013-009E,2026-06-18T00:44:13.623936,14.37163663,.00077708,98.3922,349.2443,222.4272,137.6315,0,U,39090,999,69718,.81411971E-4,.199E-5,0
BRITE-AUSTRIA,2013-009F,2026-06-17T23:22:59.618496,14.36542409,.00091757,98.3995,348.3904,233.8299,126.2040,0,U,39091,999,69716,.57868103E-4,.127E-5,0
NEE-01 PEGASO,2013-018B,2026-06-17T22:27:08.579808,14.93662991,.00131774,98.1225,313.1098,156.9110,203.2703,0,U,39151,999,71081,.22495466E-3,.232E-4,0
POPACS 2,2013-055E,2026-06-17T21:57:03.578400,14.91227563,.04168149,80.9908,143.3595,191.4338,167.7191,0,U,39269,999,66332,.21015957E-3,.12434E-3,0
POPACS 3,2013-055F,2026-06-16T21:55:09.987456,14.56118366,.05521721,81.0011,229.4846,70.8295,295.1804,0,U,39270,999,63851,.19719237E-3,.8396E-4,0
ZACUBE-1 (TSHEPISOSAT),2013-066B,2026-06-17T22:34:21.790272,15.01192546,.00408986,97.8077,131.2813,245.0967,114.6003,0,U,39417,999,68084,.19407126E-3,.2469E-4,0
WNISAT-1,2013-066H,2026-06-17T23:11:01.230144,14.58063412,.01620085,97.7203,318.0669,229.1202,129.5868,0,U,39423,999,66684,.13910035E-3,.716E-5,0
TRITON-1,2013-066M,2026-06-18T05:47:07.972800,14.81708408,.00885266,97.8251,79.0245,230.4302,128.9068,0,U,39427,999,67424,.17762887E-3,.1439E-4,0
GOMX-1,2013-066Q,2026-06-18T06:36:39.521952,14.69463611,.0130171,97.6476,9.6692,74.0743,287.4763,0,U,39430,999,67007,.2248387E-3,.1467E-4,0
CUBEBUG-2 (LO-74),2013-066AA,2026-06-18T06:27:15.672960,14.93769757,.00583235,97.8910,118.2515,25.5891,334.8194,0,U,39440,999,67715,.36657145E-3,.3955E-4,0
NEE-02 KRYSAOR,2013-066AB,2026-06-18T06:52:01.145568,14.86621952,.00676154,97.8893,108.4928,66.6994,294.1319,0,U,39441,999,67636,.19172277E-3,.1715E-4,0
FUNCUBE-1 (AO-73),2013-066AE,2026-06-17T22:02:21.619392,15.09498416,.00356925,97.8280,140.3793,198.2230,161.7722,0,U,39444,999,67977,.33079336E-3,.5311E-4,0
UWE-3,2013-066AG,2026-06-17T19:36:47.286144,14.97029101,.00474681,97.8697,124.8951,319.0483,40.7177,0,U,39446,999,67767,.31731942E-3,.3675E-4,0
BRITE-CA1 (TORONTO),2014-033L,2026-06-18T07:53:22.263360,14.72678097,.00772168,97.9741,298.2356,273.2949,85.9428,0,U,40020,999,64238,.94994543E-4,.58E-5,0
DUCHIFAT-1,2014-033M,2026-06-18T02:36:45.378720,15.64751867,.00027316,98.0458,228.3980,118.1030,242.0504,0,U,40021,999,65589,.8400996E-3,.82132E-3,0
NANOSATC-BR1,2014-033Q,2026-06-18T01:18:56.496384,15.31480608,.00044904,98.0715,201.5196,160.3673,199.7740,0,U,40024,999,65411,.43893886E-3,.13269E-3,0
QB50P1,2014-033R,2026-06-18T00:09:52.030944,15.18271143,.00078854,98.0961,180.2104,212.2174,147.8578,0,U,40025,999,65315,.31496322E-3,.6382E-4,0
QB50P2,2014-033Y,2026-06-17T23:00:25.721856,15.15166479,.00080949,98.0749,165.8867,160.8640,199.2897,0,U,40032,999,65278,.3013334E-3,.5583E-4,0
PERSEUS-M2,2014-033AD,2026-06-18T06:25:10.091424,14.95511784,.001064,97.9964,119.8301,300.3512,59.6656,0,U,40037,999,65094,.12851843E-3,.1363E-4,0
